COMMENT,ORIGINATOR,NORAD_CAT_ID,OBJECT_NAME,OBJECT_TYPE,CLASSIFICATION_TYPE,INTLDES,EPOCH,EPOCH_MICROSECONDS,MEAN_MOTION,ECCENTRICITY,INCLINATION,RA_OF_ASC_NODE,ARG_OF_PERICENTER,MEAN_ANOMALY,EPHEMERIS_TYPE,ELEMENT_SET_NO,REV_AT_EPOCH,BSTAR,MEAN_MOTION_DOT,MEAN_MOTION_DDOT,FILE,TLE_LINE0,TLE_LINE1,TLE_LINE2,OBJECT_ID,OBJECT_NUMBER,SEMIMAJOR_AXIS,PERIOD,APOGEE,PERIGEE,DECAYED
"GENERATED VIA SPACETRACK.ORG API","18 SPCS","48904","SPACEBEE-111","PAYLOAD","U","21059AB","2022-01-29 08:40:27","616800","15.13749951","0.0010087","97.5379","160.4007","217.9981","142.054","0","999","3289","0.00035468","0.00006336","0","3286885","0 SPACEBEE-111","1 48904U 21059AB  22029.36143075  .00006336  00000-0  35468-3 0  9993","2 48904  97.5379 160.4007 0010087 217.9981 142.0540 15.13749951 32891","2021-059AB","48904","6902.913","95.128","531.741","517.815","1"
"GENERATED VIA SPACETRACK.ORG API","18 SPCS","48904","SPACEBEE-111","PAYLOAD","U","21059AB","2022-01-29 21:21:57","975840","15.13756177","0.0010084","97.538","160.9242","216.1235","143.9316","0","999","3297","0.0003477","0.00006211","0","3287083","0 SPACEBEE-111","1 48904U 21059AB  22029.89025435  .00006211  00000-0  34770-3 0  9997","2 48904  97.5380 160.9242 0010084 216.1235 143.9316 15.13756177 32977","2021-059AB","48904","6902.894","95.128","531.720","517.798","1"
"GENERATED VIA SPACETRACK.ORG API","18 SPCS","48904","SPACEBEE-111","PAYLOAD","U","21059AB","2022-01-30 08:28:16","854240","15.13761533","0.0010097","97.5381","161.3823","214.1625","145.8958","0","999","3304","0.00032846","0.00005865","0","3287677","0 SPACEBEE-111","1 48904U 21059AB  22030.35297285  .00005865  00000-0  32846-3 0  9990","2 48904  97.5381 161.3823 0010097 214.1625 145.8958 15.13761533 33047","2021-059AB","48904","6902.878","95.127","531.713","517.773","1"
"GENERATED VIA SPACETRACK.ORG API","18 SPCS","48904","SPACEBEE-111","PAYLOAD","U","21059AB","2022-01-30 19:34:35","567616","15.13768386","0.0010122","97.5382","161.8403","212.4541","147.6069","0","999","3311","0.00035513","0.00006348","0","3287759","0 SPACEBEE-111","1 48904U 21059AB  22030.81568944  .00006348  00000-0  35513-3 0  9995","2 48904  97.5382 161.8403 0010122 212.4541 147.6069 15.13768386 33118","2021-059AB","48904","6902.857","95.127","531.709","517.735","1"
"GENERATED VIA SPACETRACK.ORG API","18 SPCS","48904","SPACEBEE-111","PAYLOAD","U","21059AB","2022-01-30 21:09:46","813248","15.13768763","0.0010122","97.5382","161.9057","212.1636","147.8979","0","999","3312","0.00034407","0.00006148","0","3287903","0 SPACEBEE-111","1 48904U 21059AB  22030.88179182  .00006148  00000-0  34407-3 0  9993","2 48904  97.5382 161.9057 0010122 212.1636 147.8979 15.13768763 33128","2021-059AB","48904","6902.856","95.127","531.708","517.734","1"
"GENERATED VIA SPACETRACK.ORG API","18 SPCS","48904","SPACEBEE-111","PAYLOAD","U","21059AB","2022-01-31 08:16:05","326176","15.13779721","0.0010146","97.5383","162.3638","210.494","149.5703","0","999","3319","0.0004825","0.00008654","0","3288447","0 SPACEBEE-111","1 48904U 21059AB  22031.34450609  .00008654  00000-0  48250-3 0  9996","2 48904  97.5383 162.3638 0010146 210.4940 149.5703 15.13779721 33191","2021-059AB","48904","6902.823","95.126","531.691","517.684","1"
"GENERATED VIA SPACETRACK.ORG API","18 SPCS","48904","SPACEBEE-111","PAYLOAD","U","21059AB","2022-01-31 20:57:34","860960","15.13787389","0.0010186","97.5384","162.8873","208.4781","151.5895","0","999","3327","0.00053087","0.00009531","0","3288814","0 SPACEBEE-111","1 48904U 21059AB  22031.87332015  .00009531  00000-0  53087-3 0  9993","2 48904  97.5384 162.8873 0010186 208.4781 151.5895 15.13787389 33275","2021-059AB","48904","6902.799","95.126","531.696","517.633","1"
"GENERATED VIA SPACETRACK.ORG API","18 SPCS","48904","SPACEBEE-111","PAYLOAD","U","21059AB","2022-01-31 22:32:45","999456","15.13789118","0.0010186","97.5384","162.9527","208.3774","151.6903","0","999","3328","0.00051471","0.00009239","0","3288906","0 SPACEBEE-111","1 48904U 21059AB  22031.93942129  .00009239  00000-0  51471-3 0  9993","2 48904  97.5384 162.9527 0010186 208.3774 151.6903 15.13789118 33287","2021-059AB","48904","6902.794","95.126","531.690","517.628","1"
"GENERATED VIA SPACETRACK.ORG API","18 SPCS","48904","SPACEBEE-111","PAYLOAD","U","21059AB","2022-02-01 14:24:37","635840","15.13794382","0.0010258","97.5385","163.607","206.0495","154.0222","0","999","3338","0.00044067","0.000079","0","3289399","0 SPACEBEE-111","1 48904U 21059AB  22032.60043560  .00007900  00000-0  44067-3 0  9995","2 48904  97.5385 163.6070 0010258 206.0495 154.0222 15.13794382 33385","2021-059AB","48904","6902.778","95.125","531.724","517.562","1"
"GENERATED VIA SPACETRACK.ORG API","18 SPCS","48904","SPACEBEE-111","PAYLOAD","U","21059AB","2022-02-01 20:45:22","203648","15.13794427","0.0010293","97.5385","163.8687","205.2026","154.8705","0","999","3342","0.00031639","0.00005652","0","3289675","0 SPACEBEE-111","1 48904U 21059AB  22032.86484032  .00005652  00000-0  31639-3 0  9999","2 48904  97.5385 163.8687 0010293 205.2026 154.8705 15.13794427 33420","2021-059AB","48904","6902.778","95.125","531.748","517.538","1"
"GENERATED VIA SPACETRACK.ORG API","18 SPCS","48904","SPACEBEE-111","PAYLOAD","U","21059AB","2022-02-01 22:20:33","350784","15.13795052","0.001029","97.5385","163.9341","205.0036","155.0698","0","999","3343","0.00032814","0.00005865","0","3289802","0 SPACEBEE-111","1 48904U 21059AB  22032.93094156  .00005865  00000-0  32814-3 0  9993","2 48904  97.5385 163.9341 0010290 205.0036 155.0698 15.13795052 33434","2021-059AB","48904","6902.776","95.125","531.744","517.538","1"
"GENERATED VIA SPACETRACK.ORG API","18 SPCS","48904","SPACEBEE-111","PAYLOAD","U","21059AB","2022-02-02 14:12:24","515424","15.13804226","0.0010358","97.5386","164.5884","202.7207","157.3567","0","999","3353","0.00037005","0.00006625","0","3290262","0 SPACEBEE-111","1 48904U 21059AB  22033.59195041  .00006625  00000-0  37005-3 0  9993","2 48904  97.5386 164.5884 0010358 202.7207 157.3567 15.13804226 33538","2021-059AB","48904","6902.748","95.125","531.763","517.463","1"
"GENERATED VIA SPACETRACK.ORG API","18 SPCS","48904","SPACEBEE-111","PAYLOAD","U","21059AB","2022-02-03 02:53:53","191392","15.1381193","0.0010397","97.5386","165.1117","200.9968","159.0838","0","999","3361","0.00040566","0.00007271","0","3290610","0 SPACEBEE-111","1 48904U 21059AB  22034.12075453  .00007271  00000-0  40566-3 0  9991","2 48904  97.5386 165.1117 0010397 200.9968 159.0838 15.13811930 33610","2021-059AB","48904","6902.725","95.124","531.767","517.413","1"
"GENERATED VIA SPACETRACK.ORG API","18 SPCS","48904","SPACEBEE-111","PAYLOAD","U","21059AB","2022-02-03 07:39:26","400384","15.13813313","0.0010419","97.5386","165.308","200.3632","159.7185","0","999","3364","0.00035793","0.00006407","0","3291268","0 SPACEBEE-111","1 48904U 21059AB  22034.31905556  .00006407  00000-0  35793-3 0  9994","2 48904  97.5386 165.3080 0010419 200.3632 159.7185 15.13813313 33640","2021-059AB","48904","6902.721","95.124","531.778","517.394","1"
"GENERATED VIA SPACETRACK.ORG API","18 SPCS","48904","SPACEBEE-111","PAYLOAD","U","21059AB","2022-02-03 18:45:43","640640","15.13825897","0.001045","97.5387","165.7659","198.7095","161.3754","0","999","3371","0.00053305","0.00009581","0","3291273","0 SPACEBEE-111","1 48904U 21059AB  22034.78175510  .00009581  00000-0  53305-3 0  9999","2 48904  97.5387 165.7659 0010450 198.7095 161.3754 15.13825897 33714","2021-059AB","48904","6902.682","95.123","531.761","517.334","1"
"GENERATED VIA SPACETRACK.ORG API","18 SPCS","48904","SPACEBEE-111","PAYLOAD","U","21059AB","2022-02-04 04:16:49","727712","15.13833018","0.0010465","97.5387","166.1584","197.2916","162.796","0","999","3377","0.00056407","0.00010146","0","3291503","0 SPACEBEE-111","1 48904U 21059AB  22035.17835333  .00010146  00000-0  56407-3 0  9994","2 48904  97.5387 166.1584 0010465 197.2916 162.7960 15.13833018 33772","2021-059AB","48904","6902.661","95.123","531.749","517.302","1"
"GENERATED VIA SPACETRACK.ORG API","18 SPCS","48904","SPACEBEE-111","PAYLOAD","U","21059AB","2022-02-04 07:27:11","687616","15.13835133","0.0010486","97.5386","166.2893","196.904","163.1844","0","999","3379","0.00053945","0.000097","0","3291889","0 SPACEBEE-111","1 48904U 21059AB  22035.31055194  .00009700  00000-0  53945-3 0  9997","2 48904  97.5386 166.2893 0010486 196.9040 163.1844 15.13835133 33790","2021-059AB","48904","6902.654","95.123","531.757","517.281","1"
"GENERATED VIA SPACETRACK.ORG API","18 SPCS","48904","SPACEBEE-111","PAYLOAD","U","21059AB","2022-02-04 21:43:50","295936","15.13849888","0.0010522","97.5387","166.8781","194.7087","165.384","0","999","3388","0.00063179","0.00011379","0","3292189","0 SPACEBEE-111","1 48904U 21059AB  22035.90544324  .00011379  00000-0  63179-3 0  9995","2 48904  97.5387 166.8781 0010522 194.7087 165.3840 15.13849888 33883","2021-059AB","48904","6902.609","95.122","531.737","517.211","1"
"GENERATED VIA SPACETRACK.ORG API","18 SPCS","48904","SPACEBEE-111","PAYLOAD","U","21059AB","2022-02-05 07:14:55","765248","15.13858022","0.0010543","97.5387","167.2707","193.0651","167.0308","0","999","3394","0.00060113","0.00010826","0","3292532","0 SPACEBEE-111","1 48904U 21059AB  22036.30203432  .00010826  00000-0  60113-3 0  9993","2 48904  97.5387 167.2707 0010543 193.0651 167.0308 15.13858022 33943","2021-059AB","48904","6902.585","95.121","531.727","517.172","1"
"GENERATED VIA SPACETRACK.ORG API","18 SPCS","48904","SPACEBEE-111","PAYLOAD","U","21059AB","2022-02-05 07:14:55","765248","15.13858022","0.0010543","97.5387","167.2707","193.0651","167.0308","0","999","3394","0.00060113","0.00010826","0","3292709","0 SPACEBEE-111","1 48904U 21059AB  22036.30203432  .00010826  00000-0  60113-3 0  9993","2 48904  97.5387 167.2707 0010543 193.0651 167.0308 15.13858022 33943","2021-059AB","48904","6902.585","95.121","531.727","517.172","1"
